DMSP 5D-3 F16 (USA 172) 
1 28054U 03048A   26086.87408565  .00000154  00000+0  10407-3 0  9993
2 28054  98.9970 110.1374 0007428  26.1395 323.9281 14.14468976157985
METEOSAT-9 (MSG-2)      
1 28912U 05049B   26086.55542547  .00000111  00000+0  00000+0 0  9990
2 28912   9.1790  54.9529 0000194 126.4362 249.1755  1.00272431  6180
